FLOCK 4G-24             
1 62637U 25009AE  26068.72509072  .00010513  00000+0  38996-3 0  9991
2 62637  97.4061 151.5140 0001802 280.2808  79.8228 15.27784978 63732
STARLINK-35989          
1 66819U 25278AE  26068.20174951  .00031775  00000+0  11589-2 0  9993
2 66819  43.0011 117.1875 0001584 275.3817  84.6854 15.27588589 15135
